BEIDOU 3 (C01)          
1 36287U 10001A   21173.36849927 -.00000279  00000-0  00000+0 0  9998
2 36287   1.8813  46.8730 0005588  75.7396  61.2221  1.00274206 41900
BEIDOU 5 (C06)          
1 36828U 10036A   21176.40660618 -.00000054  00000-0  00000-0 0  9995
2 36828  54.1788 179.5212 0114216 235.5816 122.9120  1.00258200 39988
BEIDOU 6 (C04)          
1 37210U 10057A   21176.61751574 -.00000121  00000-0  00000-0 0  9994
2 37210   0.8535  48.7963 0004288 115.5396 131.8509  1.00270124 39056
BEIDOU 7 (C07)          
1 37256U 10068A   21176.23950137 -.00000235  00000-0  00000-0 0  9996
2 37256  50.8495 293.9088 0086108 215.3948 327.3037  1.00251412 38563
BEIDOU 8 (C08)          
1 37384U 11013A   21176.24084859 -.00000217  00000-0  00000-0 0  9999
2 37384  59.7865  57.8284 0052063 205.1036 213.2777  1.00251555 37445
BEIDOU 9 (C09)          
1 37763U 11038A   21176.58632359 -.00000024  00000-0  00000-0 0  9994
2 37763  54.4651 181.9608 0083935 226.8320 171.1833  1.00263565 36424
BEIDOU 10 (C10)         
1 37948U 11073A   21176.24386132 -.00000171  00000-0  00000-0 0  9999
2 37948  50.9520 293.5272 0075661 214.8037 307.2187  1.00291496 35170
BEIDOU 11 (C05)         
1 38091U 12008A   21176.58449785  .00000048  00000-0  00000-0 0  9991
2 38091   1.5674  67.7995 0007894 334.3114 140.9526  1.00274854 34258
BEIDOU 12 (C11)         
1 38250U 12018A   21172.84707249 -.00000073  00000-0  00000+0 0  9994
2 38250  56.7556   5.4663 0020083 245.9756 113.8507  1.86234219 62367
BEIDOU 13 (C12)         
1 38251U 12018B   21172.51611847 -.00000071  00000-0  00000+0 0  9995
2 38251  56.6725   4.8250 0010952 248.9993 293.3379  1.86234172 62369
BEIDOU 15 (C14)         
1 38775U 12050B   21173.02339121  .00000007  00000-0  00000+0 0  9999
2 38775  55.2113 123.8299 0015776 320.1835  39.6576  1.86232169 59740
BEIDOU 16 (C02)         
1 38953U 12059A   21176.54319682 -.00000184  00000-0  00000-0 0  9994
2 38953   1.9881  84.6928 0006939 297.9505 170.8303  1.00272758 31826
BEIDOU 17 (C31)         
1 40549U 15019A   21176.24537174 -.00000200  00000-0  00000-0 0  9991
2 40549  52.4845 316.8982 0038747 187.1301 313.5450  1.00264201 22853
BEIDOU 18 (C57)         
1 40748U 15037A   21172.91563968 -.00000075  00000-0  00000+0 0  9991
2 40748  55.9391   3.8964 0004514  41.9144 318.1547  1.86233286 40208
BEIDOU 19 (C58)         
1 40749U 15037B   21172.17563992 -.00000071  00000-0  00000+0 0  9993
2 40749  55.9425   3.9099 0003504 351.4332   8.5968  1.86232058 40183
BEIDOU 20 (C18)         
1 40938U 15053A   21176.39275153 -.00000150  00000-0  00000-0 0  9997
2 40938  52.0504 279.9711 0047215 192.4844  38.8950  1.00281144 21129
BEIDOU IGSO-6 (C13)     
1 41434U 16021A   21176.40393640 -.00000181  00000-0  00000-0 0  9993
2 41434  57.5722  56.5584 0037998 213.4399 245.4910  1.00267882 19252
BEIDOU-2 G7 (C03)       
1 41586U 16037A   21176.54846939 -.00000362  00000-0  00000-0 0  9998
2 41586   1.7176  67.3219 0009483  16.9519 137.5485  1.00276112 18564
BEIDOU-3 M1 (C19)       
1 43001U 17069A   21172.25369594  .00000018  00000-0  00000+0 0  9995
2 43001  55.3649 123.8080 0011586 293.3567  66.4826  1.86231593 24679
BEIDOU-3 M2 (C20)       
1 43002U 17069B   21172.18890238  .00000019  00000-0  00000+0 0  9993
2 43002  55.3647 123.8456 0010274 312.2616  47.6129  1.86231290 24664
BEIDOU-3 M3 (C27)       
1 43107U 18003A   21172.47875706 -.00000074  00000-0  00000+0 0  9995
2 43107  55.3821   4.9894 0005620  56.0735 304.0165  1.86232406 23437
BEIDOU-3 M4 (C28)       
1 43108U 18003B   21174.29060469 -.00000085  00000-0  00000-0 0  9993
2 43108  55.3747   4.9176 0001887 236.4258 303.6047  1.86232662 23464
BEIDOU-3 M5 (C21)       
1 43207U 18018A   21176.08005243 -.00000015  00000-0  00000-0 0  9990
2 43207  55.3263 123.8051 0007887 327.8107  32.0913  1.86231785 22889
BEIDOU-3 M6 (C22)       
1 43208U 18018B   21175.60977631 -.00000015  00000-0  00000-0 0  9997
2 43208  55.3261 123.8264 0010141 302.6464  57.2059  1.86231754 22873
BEIDOU-3 M7 (C29)       
1 43245U 18029A   21173.14958920 -.00000078  00000-0  00000+0 0  9995
2 43245  55.3132   2.7583 0001378  77.7718 282.2755  1.86232332 21981
BEIDOU-3 M8 (C30)       
1 43246U 18029B   21172.54374989 -.00000075  00000-0  00000+0 0  9993
2 43246  55.3102   2.8096 0004119   8.7566 351.2841  1.86232762 21968
BEIDOU IGSO-7 (C16)     
1 43539U 18057A   21176.65134998 -.00000080  00000-0  00000-0 0  9996
2 43539  55.0582 178.8798 0039104 223.5890 219.4133  1.00266561 10938
BEIDOU-3 M9 (C23)       
1 43581U 18062A   21173.30425112  .00000044  00000-0  00000+0 0  9997
2 43581  54.3986 244.4316 0005173 262.6545  97.3659  1.86231627 19722
BEIDOU-3 M10 (C24)      
1 43582U 18062B   21172.63111945  .00000040  00000-0  00000+0 0  9995
2 43582  54.3984 244.4443 0004194 335.6096  24.4462  1.86231793 19712
BEIDOU-3 M11 (C25)      
1 43602U 18067A   21172.56816320  .00000043  00000-0  00000+0 0  9997
2 43602  54.4747 243.0294 0006336 353.0254   7.0430  1.86231582 19204
BEIDOU-3 M12 (C26)      
1 43603U 18067B   21172.70169834  .00000043  00000-0  00000+0 0  9995
2 43603  54.4717 242.9923 0003855 335.4945  24.5650  1.86231533 19229
BEIDOU-3 M13 (C32)      
1 43622U 18072A   21173.19347786  .00000004  00000-0  00000+0 0  9997
2 43622  55.2894 123.4705 0008043 291.7692  68.1014  1.86231755 18743
BEIDOU-3 M14 (C33)      
1 43623U 18072B   21173.05893594  .00000005  00000-0  00000+0 0  9997
2 43623  55.2911 123.4665 0006529 312.9094  46.9926  1.86231727 18743
BEIDOU-3 M15 (C34)      
1 43647U 18078A   21174.28929852 -.00000086  00000-0  00000+0 0  9992
2 43647  55.2068   2.9085 0006480   7.9019 352.1366  1.86232698 18268
BEIDOU-3 M16 (C35)      
1 43648U 18078B   21173.35196761 -.00000080  00000-0  00000+0 0  9999
2 43648  55.2030   2.9478 0004770  23.5119 336.5415  1.86232195 18273
BEIDOU-3 G1 (C59)       
1 43683U 18085A   21176.55431419 -.00000284  00000-0  00000-0 0  9990
2 43683   1.0424 226.1932 0002754 353.4047  33.8941  1.00269963  9830
BEIDOU-3 M17 (C36)      
1 43706U 18093A   21175.65342172  .00000042  00000-0  00000-0 0  9993
2 43706  54.4782 244.2096 0010798 266.5310  93.4339  1.86231664 17676
BEIDOU-3 M18 (C37)      
1 43707U 18093B   21173.37014044  .00000044  00000-0  00000+0 0  9996
2 43707  54.4799 244.2788 0008989 288.0225  71.9593  1.86231857 17628
BEIDOU-3 IGSO-1 (C38)   
1 44204U 19023A   21176.64754742 -.00000235  00000-0  00000-0 0  9996
2 44204  56.0287  56.8306 0018570 191.8479  10.7975  1.00293420  8134
BEIDOU-2 G8             
1 44231U 19027A   21176.63002000 -.00000255  00000-0  00000-0 0  9994
2 44231   0.2641 351.8740 0006007 194.4953  98.8802  1.00266591  7849
BEIDOU-3 IGSO-2 (C39)   
1 44337U 19035A   21176.25998110 -.00000071  00000-0  00000-0 0  9990
2 44337  55.0926 174.9247 0020178 193.6911 106.1112  1.00279340  7467
BEIDOU-3 M23 (C45)      
1 44542U 19061A   21172.50680942  .00000039  00000-0  10000-3 0  9999
2 44542  54.7047 244.3873 0007688 322.8486 131.3270  1.86231248 11869
BEIDOU-3 M24 (C46)      
1 44543U 19061B   21175.87588409  .00000041  00000-0  10000-3 0  9991
2 44543  54.7014 244.2435 0005375 305.4193 158.4309  1.86231687 11927
BEIDOU-3 IGSO-3         
1 44709U 19073A   21176.39214965 -.00000199  00000-0  00000-0 0  9990
2 44709  57.8319 300.0752 0019972 198.9210  22.9470  1.00274217  6222
BEIDOU-3 M21            
1 44793U 19078A   21172.48139814 -.00000071  00000-0  20531+2 0  9994
2 44793  55.0549   3.0372 0006864  14.0604 168.3011  1.86232583 10729
BEIDOU-3 M22            
1 44794U 19078B   21175.28728905 -.00000093  00000-0  00000+0 0  9992
2 44794  55.0294   2.9407 0004639  12.6634 161.9178  1.86232979 10776
BEIDOU-3 M19            
1 44864U 19090A   21175.65335000 -.00000015  00000-0  00000+0 0  9999
2 44864  55.2251 123.6167 0017591 270.1150 344.4823  1.86231932 10366
BEIDOU-3 M20            
1 44865U 19090B   21175.10169034 -.00000014  00000-0  00000+0 0  9991
2 44865  55.2265 123.6672 0016494 283.8400  50.8143  1.86231955 10338
BEIDOU-3 G2             
1 45344U 20017A   21176.54241170 -.00000146  00000-0  00000-0 0  9993
2 45344   2.4193 336.7228 0004077 122.4600  90.0381  1.00270627  5040
BEIDOU-3 G3             
1 45807U 20040A   21176.63205272 -.00000358  00000-0  00000-0 0  9991
2 45807   2.2644 298.5496 0004259 351.9514 321.5123  1.00266704  3854
